{
  "norad_id": 58630,
  "name": "STARLINK-31084",
  "history": [
    {
      "epoch": "2026-03-28T22:33:15.810912",
      "apogee_km": 484.04693348121236,
      "perigee_km": 482.0161648140347,
      "latitude_deg": 34.27594293892899,
      "longitude_deg": 133.21756767993793,
      "semi_major_axis_km": 6861.168549147623,
      "eccentricity": 0.00014799,
      "inclination_deg": 43.004,
      "raan_deg": 321.9674,
      "arg_perigee_deg": 272.6464,
      "mean_anomaly_deg": 87.4218,
      "mean_motion_rev_day": 15.2758586
    },
    {
      "epoch": "2026-03-29T00:07:24.845952",
      "apogee_km": 483.97400796902366,
      "perigee_km": 482.03367733872255,
      "latitude_deg": -5.307610463987394,
      "longitude_deg": 139.4942732800264,
      "semi_major_axis_km": 6861.140842653873,
      "eccentricity": 0.0001414,
      "inclination_deg": 43.0035,
      "raan_deg": 321.5984,
      "arg_perigee_deg": 272.8811,
      "mean_anomaly_deg": 87.1879,
      "mean_motion_rev_day": 15.27595113
    }
  ]
}